STARLINK-34989          
1 65251U 25179S   26166.59467839  .00002303  00000+0  16347-3 0  9996
2 65251  97.3563 208.5943 0000680 105.7675 254.3628 15.05661898 46728
STARLINK-34961          
1 65252U 25179T   26166.54760192  .00004199  00000+0  29474-3 0  9990
2 65252  97.3565 208.5043 0001565 101.1682 258.9721 15.05662417 46556
STARLINK-34933          
1 65253U 25179U   26166.57252145  .00002761  00000+0  19524-3 0  9996
2 65253  97.3595 208.4689 0002200  95.2444 264.9035 15.05658830 46549
STARLINK-34979          
1 65254U 25179V   26166.57805705  .00002904  00000+0  20514-3 0  9993
2 65254  97.3586 208.4613 0001366 121.6605 238.4756 15.05659055 46548
STARLINK-34987          
1 65255U 25179W   26166.56698385  .00003711  00000+0  26098-3 0  9997
2 65255  97.3561 208.4760 0001894  95.0031 265.1413 15.05658443 46534
STARLINK-34971          
1 65256U 25179X   26166.60852564  .00001317  00000+0  95164-4 0  9995
2 65256  97.3556 208.5750 0001250  92.3315 267.8056 15.05664658 46289
STARLINK-34966          
1 65257U 25179Y   26166.60298456  .00010731  00000+0  74613-3 0  9995
2 65257  97.3569 208.5807 0001151 171.2302 188.8946 15.05675173 46666
STARLINK-34980          
1 65258U 25179Z   26166.55592783  .00007937  00000+0  55347-3 0  9997
2 65258  97.3572 208.4926 0001680 123.1353 237.0036 15.05650040 46541
2025-180A               
1 65259U 25180A   26161.63181979  .00014756  00000+0  63177-3 0  9992
2 65259  97.5182 290.4749 0011540 344.4054  15.6825 15.22838275 44795
2025-180B               
1 65260U 25180B   26160.60446131  .00003069  00000+0  16576-3 0  9990
2 65260  97.5265 287.9062 0014048 355.7197   4.3913 15.15391461 44513
2025-180C               
1 65261U 25180C   26166.61312972  .00003759  00000+0  20214-3 0  9993
2 65261  97.5248 293.7610 0013020 332.1059  27.9474 15.15422198 45420
2025-180D               
1 65262U 25180D   26166.54694389  .00003659  00000+0  19684-3 0  9999
2 65262  97.5267 293.7633 0013137 331.4438  28.6073 15.15425539 45413
2025-180E               
1 65263U 25180E   26166.61922402  .00001013  00000+0  55672-4 0  9998
2 65263  97.4780 293.6985 0001402  84.6361 275.5032 15.16345108 45485
COSMOS 2591             
1 65267U 25182A   26166.54021479  .00071752  38099-5  17405-3 0  9993
2 65267  96.5880  97.7554 0008499 136.6736 223.5212 15.96349836 47432
COSMOS 2592             
1 65268U 25182B   26166.55586988  .00064993  34613-5  15750-3 0  9994
2 65268  96.5896  97.7146 0006966 138.9466 221.2338 15.96405961 47435
COSMOS 2593             
1 65269U 25182C   26166.50886824  .00065322  34741-5  15848-3 0  9999
2 65269  96.5859  97.6544 0007743 135.9452 224.2445 15.96372885 47421
COSMOS 2594             
1 65270U 25182D   26166.39917751  .00052526  29007-5  12772-3 0  9996
2 65270  96.5858  97.5317 0007334 131.0341 229.1573 15.96377178 47425
STARLINK-34922          
1 65273U 25184A   26166.58831305  .00009012  00000+0  62740-3 0  9990
2 65273  97.3553 218.2579 0001495 115.0773 245.0610 15.05673678 46033
STARLINK-34904          
1 65274U 25184B   26166.41663145  .00002607  00000+0  18458-3 0  9998
2 65274  97.3565 218.0311 0001651  88.8339 271.3078 15.05656496 46004
STARLINK-34954          
1 65275U 25184C   26166.10374041  .00005815  00000+0  40660-3 0  9993
2 65275  97.3580 217.6865 0001827 115.1957 244.9460 15.05658577 45952
STARLINK-34968          
1 65276U 25184D   26166.60216402  .00003762  00000+0  26446-3 0  9990
2 65276  97.3579 218.2440 0002502  93.2590 266.8924 15.05660428 46033
STARLINK-34935          
1 65277U 25184E   26166.38063041 -.00000777  00000+0 -49851-4 0  9996
2 65277  97.3603 218.0797 0002349  96.8335 263.3160 15.05651980 46004
STARLINK-35000          
1 65278U 25184F   26166.42491416  .00004716  00000+0  33032-3 0  9991
2 65278  97.3640 218.0224 0001500 173.3401 186.7847 15.05679797 46000
STARLINK-35023          
1 65279U 25184G   26166.61046482  .00003382  00000+0  23823-3 0  9997
2 65279  97.3553 218.2298 0001917  90.2008 269.9439 15.05653770 46036
STARLINK-35001          
1 65280U 25184H   26166.59385783  .00004464  00000+0  31304-3 0  9991
2 65280  97.3580 218.2528 0002409 100.1633 259.9866 15.05660666 46031
STARLINK-35010          
1 65281U 25184J   26166.58554902  .00002842  00000+0  20079-3 0  9997
2 65281  97.3581 218.2617 0001218 103.2912 256.8452 15.05659617 46034
STARLINK-35021          
1 65282U 25184K   26166.57446668  .00007222  00000+0  50363-3 0  9992
2 65282  97.3595 218.2782 0002946 132.7605 227.3870 15.05677004 45988
STARLINK-35015          
1 65283U 25184L   26166.16465594  .00005821  00000+0  40700-3 0  9994
2 65283  97.3560 217.7576 0000941 101.8925 258.2408 15.05655858 45962
STARLINK-35006          
1 65284U 25184M   26166.59939372  .00004919  00000+0  34456-3 0  9990
2 65284  97.3557 218.2453 0001608 101.6943 258.4465 15.05659977 46038
STARLINK-34995          
1 65285U 25184N   26166.41386213  .00002607  00000+0  18455-3 0  9995
2 65285  97.3574 218.0368 0001803 101.3387 258.8043 15.05657240 46001
