OBJECT_NAME,OBJECT_ID,EPOCH,MEAN_MOTION,ECCENTRICITY,INCLINATION,RA_OF_ASC_NODE,ARG_OF_PERICENTER,MEAN_ANOMALY,EPHEMERIS_TYPE,CLASSIFICATION_TYPE,NORAD_CAT_ID,ELEMENT_SET_NO,REV_AT_EPOCH,BSTAR,MEAN_MOTION_DOT,MEAN_MOTION_DDOT
STARLINK-34989,2025-179S,2026-06-15T14:16:20.212896,15.05661898,.00006807,97.3563,208.5943,105.7675,254.3628,0,U,65251,999,4672,.16346524E-3,.2303E-4,0
STARLINK-34961,2025-179T,2026-06-15T13:08:32.805888,15.05662417,.00015656,97.3565,208.5043,101.1682,258.9721,0,U,65252,999,4655,.29474426E-3,.4199E-4,0
STARLINK-34933,2025-179U,2026-06-15T13:44:25.853280,15.05658830,.00022001,97.3595,208.4689,95.2444,264.9035,0,U,65253,999,4654,.19524039E-3,.2761E-4,0
STARLINK-34979,2025-179V,2026-06-15T13:52:24.129120,15.05659055,.00013662,97.3586,208.4613,121.6605,238.4756,0,U,65254,999,4654,.20513895E-3,.2904E-4,0
STARLINK-34987,2025-179W,2026-06-15T13:36:27.404640,15.05658443,.00018945,97.3561,208.4760,95.0031,265.1413,0,U,65255,999,4653,.26098349E-3,.3711E-4,0
STARLINK-34971,2025-179X,2026-06-15T14:36:16.615296,15.05664658,.00012502,97.3556,208.5750,92.3315,267.8056,0,U,65256,999,4628,.95164167E-4,.1317E-4,0
STARLINK-34966,2025-179Y,2026-06-15T14:28:17.865984,15.05675173,.00011517,97.3569,208.5807,171.2302,188.8946,0,U,65257,999,4666,.74612721E-3,.10731E-3,0
STARLINK-34980,2025-179Z,2026-06-15T13:20:32.164512,15.05650040,.00016803,97.3572,208.4926,123.1353,237.0036,0,U,65258,999,4654,.55347022E-3,.7937E-4,0
2025-180A,2025-180A,2026-06-10T15:09:49.229856,15.22838275,.00115406,97.5182,290.4749,344.4054,15.6825,0,U,65259,999,4479,.63177417E-3,.14756E-3,0
2025-180B,2025-180B,2026-06-09T14:30:25.457184,15.15391461,.00140487,97.5265,287.9062,355.7197,4.3913,0,U,65260,999,4451,.1657572E-3,.3069E-4,0
2025-180C,2025-180C,2026-06-15T14:42:54.407808,15.15422198,.00130208,97.5248,293.7610,332.1059,27.9474,0,U,65261,999,4542,.20214166E-3,.3759E-4,0
2025-180D,2025-180D,2026-06-15T13:07:35.952096,15.15425539,.00131377,97.5267,293.7633,331.4438,28.6073,0,U,65262,999,4541,.19683849E-3,.3659E-4,0
2025-180E,2025-180E,2026-06-15T14:51:40.955328,15.16345108,.00014028,97.4780,293.6985,84.6361,275.5032,0,U,65263,999,4548,.55671813E-4,.1013E-4,0
COSMOS 2591,2025-182A,2026-06-15T12:57:54.557856,15.96349836,.00084994,96.5880,97.7554,136.6736,223.5212,0,U,65267,999,4743,.17405098E-3,.71752E-3,.3809895E-5
COSMOS 2592,2025-182B,2026-06-15T13:20:27.157632,15.96405961,.00069668,96.5896,97.7146,138.9466,221.2338,0,U,65268,999,4743,.15750481E-3,.64993E-3,.3461317E-5
COSMOS 2593,2025-182C,2026-06-15T12:12:46.215936,15.96372885,.00077437,96.5859,97.6544,135.9452,224.2445,0,U,65269,999,4742,.1584821E-3,.65322E-3,.347415E-5
COSMOS 2594,2025-182D,2026-06-15T09:34:48.936864,15.96377178,.00073346,96.5858,97.5317,131.0341,229.1573,0,U,65270,999,4742,.12772203E-3,.52526E-3,.2900735E-5
STARLINK-34922,2025-184A,2026-06-15T14:07:10.247520,15.05673678,.00014955,97.3553,218.2579,115.0773,245.0610,0,U,65273,999,4603,.62740048E-3,.9012E-4,0
STARLINK-34904,2025-184B,2026-06-15T09:59:56.957280,15.05656496,.00016514,97.3565,218.0311,88.8339,271.3078,0,U,65274,999,4600,.1845789E-3,.2607E-4,0
STARLINK-34954,2025-184C,2026-06-15T02:29:23.171424,15.05658577,.00018274,97.3580,217.6865,115.1957,244.9460,0,U,65275,999,4595,.40659848E-3,.5815E-4,0
STARLINK-34968,2025-184D,2026-06-15T14:27:06.971328,15.05660428,.00025029,97.3579,218.2440,93.2590,266.8924,0,U,65276,999,4603,.26446142E-3,.3762E-4,0
STARLINK-34935,2025-184E,2026-06-15T09:08:06.467424,15.05651980,.00023493,97.3603,218.0797,96.8335,263.3160,0,U,65277,999,4600,-.49851392E-4,-.777E-5,0
STARLINK-35000,2025-184F,2026-06-15T10:11:52.583424,15.05679797,.00015001,97.3640,218.0224,173.3401,186.7847,0,U,65278,999,4600,.33031965E-3,.4716E-4,0
STARLINK-35023,2025-184G,2026-06-15T14:39:04.160448,15.05653770,.00019171,97.3553,218.2298,90.2008,269.9439,0,U,65279,999,4603,.23822862E-3,.3382E-4,0
STARLINK-35001,2025-184H,2026-06-15T14:15:09.316512,15.05660666,.00024099,97.3580,218.2528,100.1633,259.9866,0,U,65280,999,4603,.31304455E-3,.4464E-4,0
STARLINK-35010,2025-184J,2026-06-15T14:03:11.435328,15.05659617,.00012189,97.3581,218.2617,103.2912,256.8452,0,U,65281,999,4603,.20078656E-3,.2842E-4,0
STARLINK-35021,2025-184K,2026-06-15T13:47:13.921152,15.05677004,.00029464,97.3595,218.2782,132.7605,227.3870,0,U,65282,999,4598,.50362924E-3,.7222E-4,0
STARLINK-35015,2025-184L,2026-06-15T03:57:06.273216,15.05655858,.00009411,97.3560,217.7576,101.8925,258.2408,0,U,65283,999,4596,.40699837E-3,.5821E-4,0
STARLINK-35006,2025-184M,2026-06-15T14:23:07.617408,15.05659977,.0001608,97.3557,218.2453,101.6943,258.4465,0,U,65284,999,4603,.34456329E-3,.4919E-4,0
STARLINK-34995,2025-184N,2026-06-15T09:55:57.688032,15.05657240,.00018035,97.3574,218.0368,101.3387,258.8043,0,U,65285,999,4600,.18455024E-3,.2607E-4,0
